{
    "links": {
        "self": "http://www.neowsapp.com/rest/v1/neo/3758252?api_key=iIulBulltgU6a56xZRHN4H3l9WmuAYTsLGpBGhQ2"
    },
    "id": "3758252",
    "neo_reference_id": "3758252",
    "name": "(2016 QK44)",
    "designation": "2016 QK44",
    "nasa_jpl_url": "http://ssd.jpl.nasa.gov/sbdb.cgi?sstr=3758252",
    "absolute_magnitude_h": 22.6,
    "estimated_diameter": {
        "kilometers": {
            "estimated_diameter_min": 0.0802703167,
            "estimated_diameter_max": 0.1794898848
        },
        "meters": {
            "estimated_diameter_min": 80.2703167283,
            "estimated_diameter_max": 179.4898847799
        },
        "miles": {
            "estimated_diameter_min": 0.049877647,
            "estimated_diameter_max": 0.1115298092
        },
        "feet": {
            "estimated_diameter_min": 263.3540659348,
            "estimated_diameter_max": 588.8775935812
        }
    },
    "is_potentially_hazardous_asteroid": false,
    "close_approach_data": [
        {
            "close_approach_date": "1950-10-03",
            "close_approach_date_full": "1950-Oct-03 02:19",
            "epoch_date_close_approach": -607383660000,
            "relative_velocity": {
                "kilometers_per_second": "6.5263422493",
                "kilometers_per_hour": "23494.8320974308",
                "miles_per_hour": "14598.7749774286"
            },
            "miss_distance": {
                "astronomical": "0.3560218667",
                "lunar": "138.4925061463",
                "kilometers": "53260112.931743929",
                "miles": "33094299.5727230602"
            },
            "orbiting_body": "Earth"
        },
        {
            "close_approach_date": "1962-04-09",
            "close_approach_date_full": "1962-Apr-09 10:42",
            "epoch_date_close_approach": -243955080000,
            "relative_velocity": {
                "kilometers_per_second": "8.8585385286",
                "kilometers_per_hour": "31890.7387029854",
                "miles_per_hour": "19815.6648346411"
            },
            "miss_distance": {
                "astronomical": "0.0674264677",
                "lunar": "26.2288959353",
                "kilometers": "10086855.949543799",
                "miles": "6267681.6507864662"
            },
            "orbiting_body": "Mars"
        },
        {
            "close_approach_date": "1985-09-30",
            "close_approach_date_full": "1985-Sep-30 07:27",
            "epoch_date_close_approach": 496913220000,
            "relative_velocity": {
                "kilometers_per_second": "7.9433827937",
                "kilometers_per_hour": "28596.1780572993",
                "miles_per_hour": "17768.5529712147"
            },
            "miss_distance": {
                "astronomical": "0.3920858562",
                "lunar": "152.5213980618",
                "kilometers": "58655208.944646294",
                "miles": "36446656.7842710972"
            },
            "orbiting_body": "Earth"
        },
        {
            "close_approach_date": "2016-09-26",
            "close_approach_date_full": "2016-Sep-26 20:52",
            "epoch_date_close_approach": 1474923120000,
            "relative_velocity": {
                "kilometers_per_second": "5.229321736",
                "kilometers_per_hour": "18825.5582494871",
                "miles_per_hour": "11697.4697911883"
            },
            "miss_distance": {
                "astronomical": "0.2336661363",
                "lunar": "90.8961270207",
                "kilometers": "34955956.281609681",
                "miles": "21720624.0346723578"
            },
            "orbiting_body": "Earth"
        },
        {
            "close_approach_date": "2051-09-28",
            "close_approach_date_full": "2051-Sep-28 13:38",
            "epoch_date_close_approach": 2579521080000,
            "relative_velocity": {
                "kilometers_per_second": "5.0944341341",
                "kilometers_per_hour": "18339.9628828128",
                "miles_per_hour": "11395.7397146011"
            },
            "miss_distance": {
                "astronomical": "0.2521849322",
                "lunar": "98.0999386258",
                "kilometers": "37726328.703214414",
                "miles": "23442053.6337063532"
            },
            "orbiting_body": "Earth"
        }
    ],
    "orbital_data": {
        "orbit_id": "9",
        "orbit_determination_date": "2017-04-06 08:24:20",
        "first_observation_date": "2016-08-28",
        "last_observation_date": "2016-11-23",
        "data_arc_in_days": 87,
        "observations_used": 50,
        "orbit_uncertainty": "5",
        "minimum_orbit_intersection": ".239353",
        "jupiter_tisserand_invariant": "3.282",
        "epoch_osculation": "2459000.5",
        "eccentricity": ".5055182673076462",
        "semi_major_axis": "2.471855330102259",
        "inclination": "8.132698742756276",
        "ascending_node_longitude": "153.6159832926724",
        "orbital_period": "1419.49216838431",
        "perihelion_distance": "1.222287306593795",
        "perihelion_argument": "219.5839462972281",
        "aphelion_distance": "3.721423353610723",
        "perihelion_time": "2459085.690740968358",
        "mean_anomaly": "338.3946206737325",
        "mean_motion": ".2536118254246926",
        "equinox": "J2000",
        "orbit_class": {
            "orbit_class_type": "AMO",
            "orbit_class_description": "Near-Earth asteroid orbits similar to that of 1221 Amor",
            "orbit_class_range": "1.017 AU < q (perihelion) < 1.3 AU"
        }
    },
    "is_sentry_object": false
}